FENGYUN 1C DEB          
1 29933U 99025JF  17345.97339758  .00001100  00000-0  45534-3 0  9998
2 29933  98.8621 338.5673 0011984 337.7777  76.5226 14.28687312565445
